{"type": "FeatureCollection", "features": [ {"type": "Feature", "properties": {"norad_id": 35484, "name": "IRIDIUM 33 DEB", "group": "iridium-33-debris", "lat": 85.64356224137883, "lon": 42.760183004794506, "alt_km": 544.0580108878385, "timestamp": "2025-12-26T22:28:06.170391+00:00", "meta": {"OBJECT_NAME": "IRIDIUM 33 DEB", "OBJECT_ID": "1997-051QE", "EPOCH": "2025-12-23T05:59:10.354560", "MEAN_MOTION": 14.99264182, "ECCENTRICITY": 0.00245796, "INCLINATION": 86.3609, "RA_OF_ASC_NODE": 347.8264, "ARG_OF_PERICENTER": 91.5392, "MEAN_ANOMALY": 268.8655, "EPHEMERIS_TYPE": 0, "CLASSIFICATION_TYPE": "U", "NORAD_CAT_ID": 35484, "ELEMENT_SET_NO": 999, "REV_AT_EPOCH": 62173, "BSTAR": 0.0029536278, "MEAN_MOTION_DOT": 0.00036413, "MEAN_MOTION_DDOT": 0}, "tle": {"line1": "1 35484U 97051QE  25357.24942540  .00036413  00000+0  29536-2 0  9991", "line2": "2 35484  86.3609 347.8264 0024579  91.5392 268.8655 14.99264182621733"}}, "geometry": {"type": "Point", "coordinates": [42.760183004794506, 85.64356224137883]}}, {"type": "Feature", "properties": {"norad_id": 35488, "name": "IRIDIUM 33 DEB", "group": "iridium-33-debris", "lat": 70.67985820620332, "lon": 103.76823136044429, "alt_km": 619.6159013362403, "timestamp": "2025-12-26T22:28:06.170401+00:00", "meta": {"OBJECT_NAME": "IRIDIUM 33 DEB", "OBJECT_ID": "1997-051QJ", "EPOCH": "2025-12-24T19:47:30.471936", "MEAN_MOTION": 14.83358408, "ECCENTRICITY": 0.00280046, "INCLINATION": 86.3249, "RA_OF_ASC_NODE": 295.3058, "ARG_OF_PERICENTER": 2.7873, "MEAN_ANOMALY": 357.3501, "EPHEMERIS_TYPE": 0, "CLASSIFICATION_TYPE": "U", "NORAD_CAT_ID": 35488, "ELEMENT_SET_NO": 999, "REV_AT_EPOCH": 88445, "BSTAR": 0.0017384526, "MEAN_MOTION_DOT": 0.00014384, "MEAN_MOTION_DDOT": 0}, "tle": {"line1": "1 35488U 97051QJ  25358.82465824  .00014384  00000+0  17385-2 0  9997", "line2": "2 35488  86.3249 295.3058 0028004   2.7873 357.3501 14.83358408884452"}}, "geometry": {"type": "Point", "coordinates": [103.76823136044429, 70.67985820620332]}}, {"type": "Feature", "properties": {"norad_id": 35616, "name": "IRIDIUM 33 DEB", "group": "iridium-33-debris", "lat": -24.029079660135608, "lon": 160.91261237164977, "alt_km": 628.0138333486739, "timestamp": "2025-12-26T22:28:06.170412+00:00", "meta": {"OBJECT_NAME": "IRIDIUM 33 DEB", "OBJECT_ID": "1997-051QN", "EPOCH": "2025-12-21T16:46:45.287328", "MEAN_MOTION": 14.82015021, "ECCENTRICITY": 0.00114093, "INCLINATION": 86.3545, "RA_OF_ASC_NODE": 341.6744, "ARG_OF_PERICENTER": 134.0095, "MEAN_ANOMALY": 226.2069, "EPHEMERIS_TYPE": 0, "CLASSIFICATION_TYPE": "U", "NORAD_CAT_ID": 35616, "ELEMENT_SET_NO": 999, "REV_AT_EPOCH": 87707, "BSTAR": 0.0013754653, "MEAN_MOTION_DOT": 0.00010957, "MEAN_MOTION_DDOT": 0}, "tle": {"line1": "1 35616U 97051QN  25355.69913527  .00010957  00000+0  13755-2 0  9999", "line2": "2 35616  86.3545 341.6744 0011409 134.0095 226.2069 14.82015021877070"}}, "geometry": {"type": "Point", "coordinates": [160.91261237164977, -24.029079660135608]}}, {"type": "Feature", "properties": {"norad_id": 35618, "name": "IRIDIUM 33 DEB", "group": "iridium-33-debris", "lat": -75.7051673153967, "lon": -178.16848382880778, "alt_km": 721.1307111753258, "timestamp": "2025-12-26T22:28:06.170422+00:00", "meta": {"OBJECT_NAME": "IRIDIUM 33 DEB", "OBJECT_ID": "1997-051QQ", "EPOCH": "2025-12-26T06:24:30.351744", "MEAN_MOTION": 14.52352312, "ECCENTRICITY": 0.0027953, "INCLINATION": 86.3436, "RA_OF_ASC_NODE": 347.5894, "ARG_OF_PERICENTER": 336.1587, "MEAN_ANOMALY": 23.8322, "EPHEMERIS_TYPE": 0, "CLASSIFICATION_TYPE": "U", "NORAD_CAT_ID": 35618, "ELEMENT_SET_NO": 999, "REV_AT_EPOCH": 65590, "BSTAR": 0.00055338, "MEAN_MOTION_DOT": 2.283e-05, "MEAN_MOTION_DDOT": 0}, "tle": {"line1": "1 35618U 97051QQ  25360.26701796  .00002283  00000+0  55338-3 0  9990", "line2": "2 35618  86.3436 347.5894 0027953 336.1587  23.8322 14.52352312655907"}}, "geometry": {"type": "Point", "coordinates": [-178.16848382880778, -75.7051673153967]}}, {"type": "Feature", "properties": {"norad_id": 35620, "name": "IRIDIUM 33 DEB", "group": "iridium-33-debris", "lat": -62.387197159360866, "lon": 38.40080299119826, "alt_km": 685.915990289941, "timestamp": "2025-12-26T22:28:06.170433+00:00", "meta": {"OBJECT_NAME": "IRIDIUM 33 DEB", "OBJECT_ID": "1997-051QS", "EPOCH": "2025-12-26T07:59:16.150848", "MEAN_MOTION": 14.38462656, "ECCENTRICITY": 0.0138024, "INCLINATION": 86.3888, "RA_OF_ASC_NODE": 211.721, "ARG_OF_PERICENTER": 213.5543, "MEAN_ANOMALY": 145.6858, "EPHEMERIS_TYPE": 0, "CLASSIFICATION_TYPE": "U", "NORAD_CAT_ID": 35620, "ELEMENT_SET_NO": 999, "REV_AT_EPOCH": 60161, "BSTAR": 0.0045009, "MEAN_MOTION_DOT": 0.00015388, "MEAN_MOTION_DDOT": 0}, "tle": {"line1": "1 35620U 97051QS  25360.33282582  .00015388  00000+0  45009-2 0  9991", "line2": "2 35620  86.3888 211.7210 0138024 213.5543 145.6858 14.38462656601610"}}, "geometry": {"type": "Point", "coordinates": [38.40080299119826, -62.387197159360866]}}, {"type": "Feature", "properties": {"norad_id": 35622, "name": "IRIDIUM 33 DEB", "group": "iridium-33-debris", "lat": 23.581596112793818, "lon": 74.93818824165152, "alt_km": 548.0766365125282, "timestamp": "2025-12-26T22:28:06.170443+00:00", "meta": {"OBJECT_NAME": "IRIDIUM 33 DEB", "OBJECT_ID": "1997-051QU", "EPOCH": "2025-12-26T17:07:03.979200", "MEAN_MOTION": 15.06225935, "ECCENTRICITY": 0.0002909, "INCLINATION": 86.1991, "RA_OF_ASC_NODE": 256.7113, "ARG_OF_PERICENTER": 269.1211, "MEAN_ANOMALY": 119.0846, "EPHEMERIS_TYPE": 0, "CLASSIFICATION_TYPE": "U", "NORAD_CAT_ID": 35622, "ELEMENT_SET_NO": 999, "REV_AT_EPOCH": 87570, "BSTAR": 0.0038578, "MEAN_MOTION_DOT": 0.00056954, "MEAN_MOTION_DDOT": 0}, "tle": {"line1": "1 35622U 97051QU  25360.71324050  .00056954  00000+0  38578-2 0  9999", "line2": "2 35622  86.1991 256.7113 0002909 269.1211 119.0846 15.06225935875705"}}, "geometry": {"type": "Point", "coordinates": [74.93818824165152, 23.581596112793818]}}, {"type": "Feature", "properties": {"norad_id": 35628, "name": "IRIDIUM 33 DEB", "group": "iridium-33-debris", "lat": -37.18682871944084, "lon": -174.48707153178543, "alt_km": 672.4567152457566, "timestamp": "2025-12-26T22:28:06.170454+00:00", "meta": {"OBJECT_NAME": "IRIDIUM 33 DEB", "OBJECT_ID": "1997-051RA", "EPOCH": "2025-12-26T06:45:19.101312", "MEAN_MOTION": 14.67776082, "ECCENTRICITY": 0.0009237, "INCLINATION": 86.3573, "RA_OF_ASC_NODE": 3.0346, "ARG_OF_PERICENTER": 290.0377, "MEAN_ANOMALY": 69.9843, "EPHEMERIS_TYPE": 0, "CLASSIFICATION_TYPE": "U", "NORAD_CAT_ID": 35628, "ELEMENT_SET_NO": 999, "REV_AT_EPOCH": 86645, "BSTAR": 0.0014359, "MEAN_MOTION_DOT": 8.215e-05, "MEAN_MOTION_DDOT": 0}, "tle": {"line1": "1 35628U 97051RA  25360.28147108  .00008215  00000+0  14359-2 0  9992", "line2": "2 35628  86.3573   3.0346 0009237 290.0377  69.9843 14.67776082866459"}}, "geometry": {"type": "Point", "coordinates": [-174.48707153178543, -37.18682871944084]}}, {"type": "Feature", "properties": {"norad_id": 35631, "name": "IRIDIUM 33 DEB", "group": "iridium-33-debris", "lat": 24.793179165836158, "lon": -166.8202243802567, "alt_km": 731.2805042438231, "timestamp": "2025-12-26T22:28:06.170464+00:00", "meta": {"OBJECT_NAME": "IRIDIUM 33 DEB", "OBJECT_ID": "1997-051RD", "EPOCH": "2025-12-25T01:14:45.811104", "MEAN_MOTION": 14.47344148, "ECCENTRICITY": 0.00192475, "INCLINATION": 86.3663, "RA_OF_ASC_NODE": 15.6731, "ARG_OF_PERICENTER": 81.4254, "MEAN_ANOMALY": 341.8279, "EPHEMERIS_TYPE": 0, "CLASSIFICATION_TYPE": "U", "NORAD_CAT_ID": 35631, "ELEMENT_SET_NO": 999, "REV_AT_EPOCH": 87375, "BSTAR": 0.00038061169, "MEAN_MOTION_DOT": 1.417e-05, "MEAN_MOTION_DDOT": 0}, "tle": {"line1": "1 35631U 97051RD  25359.05191911  .00001417  00000+0  38061-3 0  9994", "line2": "2 35631  86.3663  15.6731 0019247  81.4254 341.8279 14.47344148873756"}}, "geometry": {"type": "Point", "coordinates": [-166.8202243802567, 24.793179165836158]}}, {"type": "Feature", "properties": {"norad_id": 35680, "name": "IRIDIUM 33 DEB", "group": "iridium-33-debris", "lat": -43.37237137239639, "lon": -161.07245363082873, "alt_km": 721.1449195154955, "timestamp": "2025-12-26T22:28:06.170474+00:00", "meta": {"OBJECT_NAME": "IRIDIUM 33 DEB", "OBJECT_ID": "1997-051RJ", "EPOCH": "2025-12-26T12:00:19.371744", "MEAN_MOTION": 14.21136562, "ECCENTRICITY": 0.0150773, "INCLINATION": 86.1027, "RA_OF_ASC_NODE": 15.428, "ARG_OF_PERICENTER": 234.4546, "MEAN_ANOMALY": 280.2175, "EPHEMERIS_TYPE": 0, "CLASSIFICATION_TYPE": "U", "NORAD_CAT_ID": 35680, "ELEMENT_SET_NO": 999, "REV_AT_EPOCH": 60896, "BSTAR": 0.0033475, "MEAN_MOTION_DOT": 8.18e-05, "MEAN_MOTION_DDOT": 0}, "tle": {"line1": "1 35680U 97051RJ  25360.50022421  .00008180  00000+0  33475-2 0  9996", "line2": "2 35680  86.1027  15.4280 0150773 234.4546 280.2175 14.21136562608964"}}, "geometry": {"type": "Point", "coordinates": [-161.07245363082873, -43.37237137239639]}}, {"type": "Feature", "properties": {"norad_id": 35744, "name": "IRIDIUM 33 DEB", "group": "iridium-33-debris", "lat": -70.57274021014682, "lon": -51.46417135362577, "alt_km": 677.515211044386, "timestamp": "2025-12-26T22:28:06.170484+00:00", "meta": {"OBJECT_NAME": "IRIDIUM 33 DEB", "OBJECT_ID": "1997-051RX", "EPOCH": "2025-12-24T15:17:19.932000", "MEAN_MOTION": 14.71145759, "ECCENTRICITY": 0.00219113, "INCLINATION": 86.3301, "RA_OF_ASC_NODE": 320.0594, "ARG_OF_PERICENTER": 150.6894, "MEAN_ANOMALY": 209.5557, "EPHEMERIS_TYPE": 0, "CLASSIFICATION_TYPE": "U", "NORAD_CAT_ID": 35744, "ELEMENT_SET_NO": 999, "REV_AT_EPOCH": 87506, "BSTAR": 0.0011850025, "MEAN_MOTION_DOT": 7.344e-05, "MEAN_MOTION_DDOT": 0}, "tle": {"line1": "1 35744U 97051RX  25358.63703625  .00007344  00000+0  11850-2 0  9994", "line2": "2 35744  86.3301 320.0594 0021911 150.6894 209.5557 14.71145759875069"}}, "geometry": {"type": "Point", "coordinates": [-51.46417135362577, -70.57274021014682]}}]}